STARLINK-34932          
1 65179U 25175F   25325.06760626  .00002133  00000+0  15198-3 0  9993
2 65179  97.6020 195.5551 0002273  81.1426 279.0058 15.05653487 16294
STARLINK-34862          
1 65180U 25175G   25325.06483271  .00002982  00000+0  21083-3 0  9995
2 65180  97.6020 195.5589 0002345  84.5103 275.6392 15.05639714 16296
STARLINK-34942          
1 65181U 25175H   25324.20641955  .00005479  00000+0  38353-3 0  9998
2 65181  97.6015 194.6992 0002324  81.9260 278.2230 15.05656561 16133
STARLINK-34944          
1 65182U 25175J   25324.59688545  .00017810  00000+0  12353-2 0  9990
2 65182  97.6050 195.1028 0001611  80.3530 279.7879 15.05652965 16229
STARLINK-34939          
1 65183U 25175K   25324.19535888 -.00011721  00000+0 -81019-3 0  9991
2 65183  97.6020 194.7147 0002133  90.9219 269.2252 15.05614936 16130
STARLINK-34947          
1 65184U 25175L   25324.59133642  .00008001  00000+0  55800-3 0  9992
2 65184  97.6027 195.1114 0000760 117.7166 242.4138 15.05656253 16224
STARLINK-34945          
1 65185U 25175M   25324.58855763  .00003861  00000+0  27163-3 0  9997
2 65185  97.6021 195.1149 0002104  91.2395 268.9073 15.05653942 16224
STARLINK-34965          
1 65186U 25175N   25324.18426995  .00005736  00000+0  40133-3 0  9990
2 65186  97.6030 194.7296 0002815  82.6690 277.4857 15.05657282 16163
STARLINK-34915          
1 65187U 25175P   25324.18703862  .00004944  00000+0  34655-3 0  9994
2 65187  97.6026 194.7255 0002572  85.9216 274.2304 15.05656623 16164
STARLINK-34972          
1 65188U 25175Q   25324.38087955  .00009063  00000+0  63153-3 0  9997
2 65188  97.6033 194.9303 0002107  89.0332 271.1136 15.05646256 16167
STARLINK-34866          
1 65189U 25175R   25324.37811299  .00005421  00000+0  37958-3 0  9991
2 65189  97.6034 194.9345 0003102  86.3220 273.8362 15.05654141 16192
STARLINK-34917          
1 65190U 25175S   25325.16668980  .00007141  00000+0  49852-3 0  9995
2 65190  97.6036 195.7180 0002961  86.5100 240.3112 15.05653902  5670
STARLINK-34948          
1 65191U 25175T   25324.37256742  .00029175  00000+0  20165-2 0  9993
2 65191  97.6036 194.9389 0003163  88.6629 271.4960 15.05673229 16196
STARLINK-34955          
1 65192U 25175U   25324.36980289  .00004329  00000+0  30400-3 0  9991
2 65192  97.6034 194.9455 0002468  89.8938 270.2572 15.05655909 16160
STARLINK-34950          
1 65193U 25175V   25324.43349656  .00008763  00000+0  61092-3 0  9994
2 65193  97.6032 195.0151 0003345  87.8697 272.2913 15.05637477 16171
STARLINK-34926          
1 65194U 25175W   25324.35595774  .00004841  00000+0  33944-3 0  9998
2 65194  97.6006 194.9637 0002258  86.1179 274.0306 15.05654049 16168
STARLINK-34928          
1 65195U 25175X   25324.62455970  .00005569  00000+0  38974-3 0  9998
2 65195  97.6019 195.2223 0002654  83.0777 277.0752 15.05659903 16238
STARLINK-34927          
1 65196U 25175Y   25324.36427045  .00004273  00000+0  30001-3 0  9996
2 65196  97.6029 194.9527 0003064  76.7500 283.4069 15.05671792 16199
STARLINK-34952          
1 65197U 25175Z   25324.36149839  .00001631  00000+0  11723-3 0  9994
2 65197  97.6027 194.9565 0003186  84.2286 275.9304 15.05652972 16197
STARLINK-34981          
1 65198U 25176A   25325.09522786  .00022433  00000+0  76717-3 0  9990
2 65198  53.1590 300.0099 0001176  94.0640 266.0495 15.30203620 16453
STARLINK-34821          
1 65199U 25176B   25325.08403561  .00023142  00000+0  79112-3 0  9999
2 65199  53.1586 297.1070 0001191  74.2624 285.8508 15.30196956 16438
STARLINK-34865          
1 65200U 25176C   25324.21291727  .00034544  00000+0  11717-2 0  9999
2 65200  53.1615 301.6282 0001739  65.0554 295.0627 15.30236732 16351
STARLINK-34843          
1 65201U 25176D   25324.64792893  .00025156  00000+0  85766-3 0  9992
2 65201  53.1612 299.3609 0001699  74.5474 285.5715 15.30235102 16426
STARLINK-34905          
1 65202U 25176E   25324.25709549  .00024638  00000+0  84026-3 0  9998
2 65202  53.1603 301.1901 0002035  80.0447 280.0784 15.30237118 16369
STARLINK-34914          
1 65203U 25176F   25325.08087008  .00025146  00000+0  85823-3 0  9991
2 65203  53.1588 297.0890 0001207  83.7567 276.3571 15.30201478 16491
STARLINK-34787          
1 65204U 25176G   25325.06715390  .00013093  00000+0  45375-3 0  9998
2 65204  53.1605 297.0002 0001205  92.5578 267.5561 15.30175813 16499
STARLINK-34796          
1 65205U 25176H   25324.66377114  .00030140  00000+0  10252-2 0  9999
2 65205  53.1614 299.4605 0001617  84.1037 276.0148 15.30213348 16424
STARLINK-34763          
1 65206U 25176J   25325.07664815  .00025757  00000+0  87856-3 0  9996
2 65206  53.1588 297.0600 0001174  73.1229 286.9901 15.30207460 16484
STARLINK-34901          
1 65207U 25176K   25325.07348216  .00023922  00000+0  81705-3 0  9990
2 65207  53.1595 297.0400 0001364  73.5389 286.5761 15.30206676 16492
STARLINK-34841          
1 65208U 25176L   25324.64266602  .00025180  00000+0  85912-3 0  9993
2 65208  53.1608 299.3305 0001799  83.9159 276.2047 15.30210222 16427
STARLINK-34976          
1 65209U 25176M   25324.92397207  .00029132  00000+0  99120-3 0  9998
2 65209  53.1613 298.2372 0002030  89.5341 270.5892 15.30221343 16465
STARLINK-34941          
1 65210U 25176N   25324.22544917  .00031074  00000+0  10567-2 0  9990
2 65210  53.1584 300.9952 0001310  90.2189 269.8962 15.30204898 16362
STARLINK-34847          
1 65211U 25176P   25325.09353771  .00019445  00000+0  66690-3 0  9990
2 65211  53.1590 297.1686 0001472  93.8524 266.2645 15.30201362 16498
STARLINK-34897          
1 65212U 25176Q   25324.91553025  .00034062  00000+0  11561-2 0  9993
2 65212  53.1613 298.1896 0001947  93.0057 267.1167 15.30220706 16468
STARLINK-34907          
1 65213U 25176R   25324.63843829  .00060823  00000+0  20451-2 0  9999
2 65213  53.1588 299.3003 0001249 146.2002 213.9078 15.30260615 16428
STARLINK-34511          
1 65214U 25176S   25324.93347161  .00029505  00000+0  10038-2 0  9993
2 65214  53.1608 298.3002 0001971  84.1472 275.9753 15.30216181 16408
STARLINK-33913          
1 65215U 25176T   25324.92133515  .00030171  00000+0  10262-2 0  9999
2 65215  53.1600 300.3530 0001689  81.9941 278.1251 15.30213642 16433
STARLINK-34302          
1 65216U 25176U   25324.20129012  .00024604  00000+0  83986-3 0  9996
2 65216  53.1619 301.5505 0001401  86.2623 273.8538 15.30208815 16353
STARLINK-34871          
1 65217U 25176V   25325.06609683  .00021172  00000+0  72483-3 0  9996
2 65217  53.1596 296.9943 0001126  79.5466 280.5662 15.30204555 16490
STARLINK-34833          
1 65218U 25176W   25324.90603091  .00028939  00000+0  98476-3 0  9994
2 65218  53.1585 298.1275 0001591  93.9964 266.1219 15.30221154 16469
STARLINK-34960          
1 65219U 25176X   25325.06819670  .00027174  00000+0  92619-3 0  9998
2 65219  53.1602 297.0060 0001925   2.6968 357.4043 15.30201461 16493
STARLINK-34603          
1 65220U 25176Y   25325.09669641  .00038733  00000+0  13119-2 0  9994
2 65220  53.1593 297.1851 0001397 108.5699 251.5453 15.30228150 16496
STARLINK-34974          
1 65221U 25176Z   25325.07875801  .00033436  00000+0  11356-2 0  9996
2 65221  53.1586 297.0702 0001258  91.9357 268.1787 15.30209912 16494
STARLINK-34999          
1 65222U 25176AA  25324.26765936  .00013452  00000+0  46545-3 0  9999
2 65222  53.1612 301.2493 0001174  83.9891 276.1243 15.30201166 16366
STARLINK-34996          
1 65223U 25176AB  25324.37615155  .00024090  00000+0  82415-3 0  9995
2 65223  53.1583 300.5034 0001064  81.6654 278.4467 15.30148002 16381
STARLINK-34975          
1 65224U 25176AC  25324.91867619  .00024955  00000+0  85136-3 0  9993
2 65224  53.1603 298.2025 0001916  87.8281 272.2939 15.30218386 16466
STARLINK-34257          
1 65225U 25176AD  25325.07559264  .00024101  00000+0  82313-3 0  9993
2 65225  53.1591 297.0500 0001109  72.9257 287.1865 15.30203505 16437
STARLINK-34922          
1 65273U 25184A   25324.57055554  .00007776  00000+0  54240-3 0  9999
2 65273  97.6031  15.1256 0000458 115.8609 244.2665 15.05660704 14882
STARLINK-34904          
1 65274U 25184B   25324.59824654  .00007117  00000+0  49694-3 0  9993
2 65274  97.6052  15.0920 0000232 238.9476 121.1728 15.05653637 14882
STARLINK-34954          
1 65275U 25184C   25324.61762589  .00003151  00000+0  22245-3 0  9992
2 65275  97.6056  15.0650 0001033  96.9235 263.2109 15.05652605 14887
STARLINK-34968          
1 65276U 25184D   25324.58440263  .00004032  00000+0  28341-3 0  9993
2 65276  97.6030  15.1091 0001205 106.7393 253.3966 15.05656766 14889
STARLINK-34935          
1 65277U 25184E   25324.42933456  .00005613  00000+0  39286-3 0  9994
2 65277  97.6038  15.0083 0000575  96.6898 263.4394 15.05657804 14863
STARLINK-35000          
1 65278U 25184F   25324.60655321  .00003279  00000+0  23134-3 0  9998
2 65278  97.6058  15.0803 0001640  86.2430 273.8985 15.05652404 14881
STARLINK-35023          
1 65279U 25184G   25324.12749153  .00006169  00000+0  43122-3 0  9993
2 65279  97.6045  14.6412 0001186  86.5798 273.5564 15.05666944 14811
STARLINK-35001          
1 65280U 25184H   25324.57609505  .00003781  00000+0  26608-3 0  9997
2 65280  97.6035  15.1220 0000891 101.9613 258.1714 15.05658594 14880
STARLINK-35010          
1 65281U 25184J   25324.10258012  .00003674  00000+0  25869-3 0  9999
2 65281  97.6036  14.6723 0000607 128.9375 231.1906 15.05655909 14817
STARLINK-35021          
1 65282U 25184K   25324.15796501  .00002617  00000+0  18547-3 0  9996
2 65282  97.6051  14.7540 0000531  81.7668 278.3619 15.05651222 14773
STARLINK-35015          
1 65283U 25184L   25324.41273528  .00014622  00000+0  10152-2 0  9997
2 65283  97.6050  14.8766 0002059  92.4366 267.7097 15.05662015 14858
STARLINK-35006          
1 65284U 25184M   25324.58163360  .00003248  00000+0  22918-3 0  9994
2 65284  97.6028  15.1139 0000835  89.9023 270.2299 15.05654147 14886
